CCSDS_OMM_VERS = 2.0
CREATION_DATE  = 
ORIGINATOR     = 

OBJECT_NAME    = STARLINK-35496
OBJECT_ID      = 2025-237A
CENTER_NAME    = EARTH
REF_FRAME      = TEME
TIME_SYSTEM    = UTC
MEAN_ELEMENT_THEORY = SGP/SGP4

EPOCH          = 2025-11-19T08:00:03.000384
MEAN_MOTION    = 15.39572126
ECCENTRICITY   = .00008744
INCLINATION    = 53.1598
RA_OF_ASC_NODE = 197.7660
ARG_OF_PERICENTER = 151.9310
MEAN_ANOMALY   = 303.2127

EPHEMERIS_TYPE = 0
CLASSIFICATION_TYPE = U
NORAD_CAT_ID   = 66114
ELEMENT_SET_NO = 999
REV_AT_EPOCH   = 571
BSTAR          = .77892414E-3
MEAN_MOTION_DOT = .30834E-3
MEAN_MOTION_DDOT = 0

CCSDS_OMM_VERS = 2.0
CREATION_DATE  = 
ORIGINATOR     = 

OBJECT_NAME    = STARLINK-35428
OBJECT_ID      = 2025-237B
CENTER_NAME    = EARTH
REF_FRAME      = TEME
TIME_SYSTEM    = UTC
MEAN_ELEMENT_THEORY = SGP/SGP4

EPOCH          = 2025-11-19T08:00:03.000384
MEAN_MOTION    = 15.39606213
ECCENTRICITY   = .0001341
INCLINATION    = 53.1597
RA_OF_ASC_NODE = 197.9193
ARG_OF_PERICENTER = 101.4494
MEAN_ANOMALY   = 276.5017

EPHEMERIS_TYPE = 0
CLASSIFICATION_TYPE = U
NORAD_CAT_ID   = 66115
ELEMENT_SET_NO = 999
REV_AT_EPOCH   = 571
BSTAR          = .16718273E-3
MEAN_MOTION_DOT = .629E-4
MEAN_MOTION_DDOT = 0

CCSDS_OMM_VERS = 2.0
CREATION_DATE  = 
ORIGINATOR     = 

OBJECT_NAME    = STARLINK-35573
OBJECT_ID      = 2025-237C
CENTER_NAME    = EARTH
REF_FRAME      = TEME
TIME_SYSTEM    = UTC
MEAN_ELEMENT_THEORY = SGP/SGP4

EPOCH          = 2025-11-18T09:42:17.040960
MEAN_MOTION    = 15.49267070
ECCENTRICITY   = .00024307
INCLINATION    = 53.1611
RA_OF_ASC_NODE = 202.1102
ARG_OF_PERICENTER = 37.3147
MEAN_ANOMALY   = 322.8030

EPHEMERIS_TYPE = 0
CLASSIFICATION_TYPE = U
NORAD_CAT_ID   = 66116
ELEMENT_SET_NO = 999
REV_AT_EPOCH   = 549
BSTAR          = .18139223E-2
MEAN_MOTION_DOT = .10161E-2
MEAN_MOTION_DDOT = 0

CCSDS_OMM_VERS = 2.0
CREATION_DATE  = 
ORIGINATOR     = 

OBJECT_NAME    = STARLINK-35572
OBJECT_ID      = 2025-237D
CENTER_NAME    = EARTH
REF_FRAME      = TEME
TIME_SYSTEM    = UTC
MEAN_ELEMENT_THEORY = SGP/SGP4

EPOCH          = 2025-11-19T08:00:03.000384
MEAN_MOTION    = 15.39604953
ECCENTRICITY   = .00010945
INCLINATION    = 53.1600
RA_OF_ASC_NODE = 197.8682
ARG_OF_PERICENTER = 88.3820
MEAN_ANOMALY   = 315.3258

EPHEMERIS_TYPE = 0
CLASSIFICATION_TYPE = U
NORAD_CAT_ID   = 66117
ELEMENT_SET_NO = 999
REV_AT_EPOCH   = 571
BSTAR          = .18072864E-3
MEAN_MOTION_DOT = .6833E-4
MEAN_MOTION_DDOT = 0

CCSDS_OMM_VERS = 2.0
CREATION_DATE  = 
ORIGINATOR     = 

OBJECT_NAME    = STARLINK-35468
OBJECT_ID      = 2025-237E
CENTER_NAME    = EARTH
REF_FRAME      = TEME
TIME_SYSTEM    = UTC
MEAN_ELEMENT_THEORY = SGP/SGP4

EPOCH          = 2025-11-19T00:00:02.000160
MEAN_MOTION    = 15.39596790
ECCENTRICITY   = .00012213
INCLINATION    = 53.1594
RA_OF_ASC_NODE = 199.5419
ARG_OF_PERICENTER = 98.9335
MEAN_ANOMALY   = 204.6224

EPHEMERIS_TYPE = 0
CLASSIFICATION_TYPE = U
NORAD_CAT_ID   = 66118
ELEMENT_SET_NO = 999
REV_AT_EPOCH   = 566
BSTAR          = .94425346E-3
MEAN_MOTION_DOT = .37527E-3
MEAN_MOTION_DDOT = 0

CCSDS_OMM_VERS = 2.0
CREATION_DATE  = 
ORIGINATOR     = 

OBJECT_NAME    = STARLINK-35547
OBJECT_ID      = 2025-237F
CENTER_NAME    = EARTH
REF_FRAME      = TEME
TIME_SYSTEM    = UTC
MEAN_ELEMENT_THEORY = SGP/SGP4

EPOCH          = 2025-11-18T22:08:25.614816
MEAN_MOTION    = 15.42527844
ECCENTRICITY   = .0000667
INCLINATION    = 53.1605
RA_OF_ASC_NODE = 199.6537
ARG_OF_PERICENTER = 107.1951
MEAN_ANOMALY   = 252.9128

EPHEMERIS_TYPE = 0
CLASSIFICATION_TYPE = U
NORAD_CAT_ID   = 66119
ELEMENT_SET_NO = 999
REV_AT_EPOCH   = 557
BSTAR          = -.83848319E-2
MEAN_MOTION_DOT = -.353303E-2
MEAN_MOTION_DDOT = 0

CCSDS_OMM_VERS = 2.0
CREATION_DATE  = 
ORIGINATOR     = 

OBJECT_NAME    = STARLINK-35553
OBJECT_ID      = 2025-237G
CENTER_NAME    = EARTH
REF_FRAME      = TEME
TIME_SYSTEM    = UTC
MEAN_ELEMENT_THEORY = SGP/SGP4

EPOCH          = 2025-11-19T08:00:03.000384
MEAN_MOTION    = 15.39599486
ECCENTRICITY   = .00014049
INCLINATION    = 53.1602
RA_OF_ASC_NODE = 197.8166
ARG_OF_PERICENTER = 84.1301
MEAN_ANOMALY   = 345.3453

EPHEMERIS_TYPE = 0
CLASSIFICATION_TYPE = U
NORAD_CAT_ID   = 66120
ELEMENT_SET_NO = 999
REV_AT_EPOCH   = 571
BSTAR          = .19248937E-3
MEAN_MOTION_DOT = .7302E-4
MEAN_MOTION_DDOT = 0

CCSDS_OMM_VERS = 2.0
CREATION_DATE  = 
ORIGINATOR     = 

OBJECT_NAME    = STARLINK-35631
OBJECT_ID      = 2025-237H
CENTER_NAME    = EARTH
REF_FRAME      = TEME
TIME_SYSTEM    = UTC
MEAN_ELEMENT_THEORY = SGP/SGP4

EPOCH          = 2025-11-19T01:09:16.297056
MEAN_MOTION    = 15.48776494
ECCENTRICITY   = .00076671
INCLINATION    = 53.1593
RA_OF_ASC_NODE = 199.0177
ARG_OF_PERICENTER = 160.2948
MEAN_ANOMALY   = 199.8359

EPHEMERIS_TYPE = 0
CLASSIFICATION_TYPE = U
NORAD_CAT_ID   = 66121
ELEMENT_SET_NO = 999
REV_AT_EPOCH   = 559
BSTAR          = -.40006903E-2
MEAN_MOTION_DOT = -.213305E-2
MEAN_MOTION_DDOT = 0

CCSDS_OMM_VERS = 2.0
CREATION_DATE  = 
ORIGINATOR     = 

OBJECT_NAME    = STARLINK-35653
OBJECT_ID      = 2025-237J
CENTER_NAME    = EARTH
REF_FRAME      = TEME
TIME_SYSTEM    = UTC
MEAN_ELEMENT_THEORY = SGP/SGP4

EPOCH          = 2025-11-18T23:35:16.912896
MEAN_MOTION    = 15.49372472
ECCENTRICITY   = .00011219
INCLINATION    = 53.1598
RA_OF_ASC_NODE = 199.3179
ARG_OF_PERICENTER = 96.3296
MEAN_ANOMALY   = 263.7841

EPHEMERIS_TYPE = 0
CLASSIFICATION_TYPE = U
NORAD_CAT_ID   = 66122
ELEMENT_SET_NO = 999
REV_AT_EPOCH   = 558
BSTAR          = .71267134E-3
MEAN_MOTION_DOT = .39477E-3
MEAN_MOTION_DDOT = 0

CCSDS_OMM_VERS = 2.0
CREATION_DATE  = 
ORIGINATOR     = 

OBJECT_NAME    = STARLINK-35628
OBJECT_ID      = 2025-237K
CENTER_NAME    = EARTH
REF_FRAME      = TEME
TIME_SYSTEM    = UTC
MEAN_ELEMENT_THEORY = SGP/SGP4

EPOCH          = 2025-11-18T23:34:49.041984
MEAN_MOTION    = 15.49272768
ECCENTRICITY   = .00031764
INCLINATION    = 53.1615
RA_OF_ASC_NODE = 199.3169
ARG_OF_PERICENTER = 41.2121
MEAN_ANOMALY   = 318.9127

EPHEMERIS_TYPE = 0
CLASSIFICATION_TYPE = U
NORAD_CAT_ID   = 66123
ELEMENT_SET_NO = 999
REV_AT_EPOCH   = 558
BSTAR          = .14879601E-2
MEAN_MOTION_DOT = .83093E-3
MEAN_MOTION_DDOT = 0

CCSDS_OMM_VERS = 2.0
CREATION_DATE  = 
ORIGINATOR     = 

OBJECT_NAME    = STARLINK-35645
OBJECT_ID      = 2025-237L
CENTER_NAME    = EARTH
REF_FRAME      = TEME
TIME_SYSTEM    = UTC
MEAN_ELEMENT_THEORY = SGP/SGP4

EPOCH          = 2025-11-18T22:01:25.237344
MEAN_MOTION    = 15.49329035
ECCENTRICITY   = .00011576
INCLINATION    = 53.1612
RA_OF_ASC_NODE = 199.6234
ARG_OF_PERICENTER = 77.2702
MEAN_ANOMALY   = 282.8436

EPHEMERIS_TYPE = 0
CLASSIFICATION_TYPE = U
NORAD_CAT_ID   = 66124
ELEMENT_SET_NO = 999
REV_AT_EPOCH   = 557
BSTAR          = .10997754E-2
MEAN_MOTION_DOT = .61241E-3
MEAN_MOTION_DDOT = 0

CCSDS_OMM_VERS = 2.0
CREATION_DATE  = 
ORIGINATOR     = 

OBJECT_NAME    = STARLINK-35649
OBJECT_ID      = 2025-237M
CENTER_NAME    = EARTH
REF_FRAME      = TEME
TIME_SYSTEM    = UTC
MEAN_ELEMENT_THEORY = SGP/SGP4

EPOCH          = 2025-11-18T23:33:49.399200
MEAN_MOTION    = 15.49329535
ECCENTRICITY   = .00013993
INCLINATION    = 53.1619
RA_OF_ASC_NODE = 199.3130
ARG_OF_PERICENTER = 56.5232
MEAN_ANOMALY   = 303.5911

EPHEMERIS_TYPE = 0
CLASSIFICATION_TYPE = U
NORAD_CAT_ID   = 66125
ELEMENT_SET_NO = 999
REV_AT_EPOCH   = 558
BSTAR          = .18626669E-2
MEAN_MOTION_DOT = .104619E-2
MEAN_MOTION_DDOT = 0

