STARLINK-35496          
1 66114U 25237A   25323.33336806  .00030834  00000+0  77892-3 0  9997
2 66114  53.1598 197.7660 0000874 151.9310 303.2127 15.39572126  5718
STARLINK-35428          
1 66115U 25237B   25323.33336806  .00006290  00000+0  16718-3 0  9997
2 66115  53.1597 197.9193 0001341 101.4494 276.5017 15.39606213  5719
STARLINK-35573          
1 66116U 25237C   25322.40436390  .00101610  00000+0  18139-2 0  9994
2 66116  53.1611 202.1102 0002430  37.3147 322.8030 15.49267070  5498
STARLINK-35572          
1 66117U 25237D   25323.33336806  .00006833  00000+0  18073-3 0  9998
2 66117  53.1600 197.8682 0001094  88.3820 315.3258 15.39604953  5717
STARLINK-35468          
1 66118U 25237E   25323.00002315  .00037527  00000+0  94425-3 0  9997
2 66118  53.1594 199.5419 0001221  98.9335 204.6224 15.39596790  5663
STARLINK-35547          
1 66119U 25237F   25322.92251869 -.00353303  00000+0 -83848-2 0  9999
2 66119  53.1605 199.6537 0000667 107.1951 252.9128 15.42527844  5576
STARLINK-35553          
1 66120U 25237G   25323.33336806  .00007302  00000+0  19249-3 0  9990
2 66120  53.1602 197.8166 0001404  84.1301 345.3453 15.39599486  5717
STARLINK-35631          
1 66121U 25237H   25323.04810529 -.00213305  00000+0 -40007-2 0  9997
2 66121  53.1593 199.0177 0007667 160.2948 199.8359 15.48776494  5592
STARLINK-35653          
1 66122U 25237J   25322.98283464  .00039477  00000+0  71267-3 0  9999
2 66122  53.1598 199.3179 0001121  96.3296 263.7841 15.49372472  5582
STARLINK-35628          
1 66123U 25237K   25322.98251206  .00083093  00000+0  14880-2 0  9999
2 66123  53.1615 199.3169 0003176  41.2121 318.9127 15.49272768  5587
STARLINK-35645          
1 66124U 25237L   25322.91765321  .00061241  00000+0  10998-2 0  9998
2 66124  53.1612 199.6234 0001157  77.2702 282.8436 15.49329035  5573
STARLINK-35649          
1 66125U 25237M   25322.98182175  .00104619  00000+0  18627-2 0  9990
2 66125  53.1619 199.3130 0001399  56.5232 303.5911 15.49329535  5584
